OBJECT_NAME,OBJECT_ID,EPOCH,MEAN_MOTION,ECCENTRICITY,INCLINATION,RA_OF_ASC_NODE,ARG_OF_PERICENTER,MEAN_ANOMALY,EPHEMERIS_TYPE,CLASSIFICATION_TYPE,NORAD_CAT_ID,ELEMENT_SET_NO,REV_AT_EPOCH,BSTAR,MEAN_MOTION_DOT,MEAN_MOTION_DDOT
PROX-1,2019-036A,2026-07-23T07:54:40.275648,14.91375944,.00064731,23.9936,232.6674,96.1539,263.9698,0,U,44339,999,37887,.11718547E-2,.12282E-3,0
NPSAT1,2019-036B,2026-07-23T12:30:10.797984,14.74878644,.00072163,24.0006,341.0601,264.1098,95.8575,0,U,44340,999,37786,.72568535E-3,.5226E-4,0
FORMOSAT 7-3,2019-036E,2026-07-23T12:42:32.831424,15.10040783,.00007041,23.9992,288.3663,32.7900,327.2647,0,U,44343,999,38874,.23160089E-3,.4214E-4,0
FORMOSAT 7-1,2019-036L,2026-07-23T12:25:35.364288,14.96636453,.00005217,23.9968,147.4344,221.1388,138.9073,0,U,44349,999,39010,.1621758E-3,.2197E-4,0
FORMOSAT 7-4,2019-036M,2026-07-23T08:10:07.162752,14.96631795,.00007879,23.9964,210.7427,242.4190,117.6231,0,U,44350,999,38949,.15089296E-3,.2065E-4,0
FORMOSAT 7-2,2019-036N,2026-07-23T07:06:19.283328,14.96631896,.00002768,23.9976,265.3596,224.6275,135.4203,0,U,44351,999,38900,.14909284E-3,.2044E-4,0
FORMOSAT 7-6,2019-036Q,2026-07-23T08:41:41.754912,14.96637838,.00012312,23.9980,85.7169,152.2323,207.8244,0,U,44353,999,38724,.17190107E-3,.2311E-4,0
FORMOSAT 7-5,2019-036V,2026-07-23T14:33:24.706080,14.96619611,.000001,23.9996,22.8269,87.2174,272.8328,0,U,44358,999,38781,.17944303E-3,.2397E-4,0
METEOR-M2 2,2019-038A,2026-07-23T13:29:01.292064,14.24374507,.00002349,98.9173,192.3880,346.4142,13.7030,0,U,44387,999,36647,.49561828E-4,.69E-6,0
GLOBAL-4,2019-054E,2026-07-23T13:28:45.706368,15.67904993,.00066231,45.0061,25.9709,248.6170,111.4022,0,U,44499,999,38606,.57457853E-3,.65247E-3,0
ZY-1 02D,2019-059A,2026-07-23T14:20:29.458752,14.35270396,.00029839,98.6706,266.1932,264.2317,95.8528,0,U,44528,999,35956,.66985461E-4,.147E-5,0
TAURUS-1 (JINNIUZUO 1),2019-059C,2026-07-23T14:27:47.796192,14.72429876,.00086828,98.6447,11.7054,188.8349,171.2705,0,U,44530,999,36400,.64939383E-3,.4064E-4,0
ZHUHAI-1 03B,2019-060C,2026-07-23T14:29:27.801600,15.56039707,.00089035,97.5560,4.3996,175.2811,184.8529,0,U,44536,999,38198,.51549992E-3,.35964E-3,0
ZHUHAI-1 03D,2019-060E,2026-07-23T14:47:18.528288,15.51774861,.00079098,97.5399,356.2127,161.5616,198.5924,0,U,44538,999,38172,.61024908E-3,.36476E-3,0
ZHUHAI-1 03E,2019-060F,2026-07-23T14:12:59.920416,15.42136221,.00046807,97.5649,355.8419,237.9553,122.1240,0,U,44539,999,38137,.44139621E-3,.18839E-3,0
GAOFEN-7,2019-072A,2026-07-23T15:19:39.411840,15.20964794,.00168818,97.5700,265.4154,280.4185,79.5147,0,U,44703,999,37318,.19314179E-3,.4221E-4,0
JILIN-1 GAOFEN 2A,2019-075A,2026-07-23T14:13:28.242336,15.40187803,.00045243,97.4955,289.2551,319.1375,40.9531,0,U,44777,999,37048,.38200577E-3,.15266E-3,0
NINGXIA-1 1,2019-076A,2026-07-23T12:33:08.643744,14.02042985,.00111504,45.0071,17.4728,326.4935,33.5193,0,U,44779,999,34295,.35031887E-4,-.76E-6,0
NINGXIA-1 5,2019-076E,2026-07-23T14:33:05.332608,14.02089974,.00111719,45.0067,16.4292,317.2460,42.7505,0,U,44783,999,34288,-.26971899E-4,-.171E-5,0
KL-ALPHA A,2019-077A,2026-07-23T13:42:52.602624,13.56045881,.00115606,88.9239,218.5848,14.6356,345.5131,0,U,44785,999,33066,-.18071468E-4,0,0
CARTOSAT-3,2019-081A,2026-07-23T15:30:08.408160,15.19230957,.00122403,97.4285,265.9210,32.0039,328.1936,0,U,44804,999,36900,.31724012E-3,.6628E-4,0
JILIN-1 GAOFEN 2B,2019-086A,2026-07-23T14:18:39.825792,15.21071291,.00140293,97.4866,276.3643,185.5179,174.5904,0,U,44836,999,36602,.27443741E-3,.6044E-4,0
TIANQIN 1 (CAS-6),2019-093A,2026-07-23T14:54:10.479168,14.95588223,.00098668,97.7793,288.2002,294.3268,65.6922,0,U,44879,999,35749,.46166893E-3,.5071E-4,0
ETRSS-1,2019-093B,2026-07-23T14:48:27.728640,14.96039467,.00099519,97.7814,288.6884,295.2366,64.7823,0,U,44880,999,35750,.38185004E-3,.4233E-4,0
TIANYAN 01,2019-093C,2026-07-23T14:16:30.327744,14.86567615,.00128445,97.7513,275.9367,333.3636,26.6919,0,U,44881,999,35682,.28875147E-4,.203E-5,0
TIANYAN 02,2019-093D,2026-07-23T14:38:52.329696,15.05607922,.00124854,97.7938,299.7600,257.1134,102.8698,0,U,44882,999,35809,.53697685E-3,.7697E-4,0
CBERS 4A,2019-093E,2026-07-23T15:08:11.699808,14.81457716,.00019543,98.0174,272.0994,122.6711,237.4690,0,U,44883,999,35647,.20692335E-3,.1567E-4,0
WEILAI 1R,2019-093F,2026-07-23T14:11:34.178784,15.00921640,.00146103,97.7892,294.5474,279.0122,80.9448,0,U,44884,999,35788,.44519975E-3,.5623E-4,0
