PROX-1                  
1 44339U 19036A   26204.32963282  .00012282  00000+0  11719-2 0  9996
2 44339  23.9936 232.6674 0006473  96.1539 263.9698 14.91375944378873
NPSAT1                  
1 44340U 19036B   26204.52095831  .00005226  00000+0  72569-3 0  9997
2 44340  24.0006 341.0601 0007216 264.1098  95.8575 14.74878644377863
FORMOSAT 7-3            
1 44343U 19036E   26204.52954666  .00004214  00000+0  23160-3 0  9999
2 44343  23.9992 288.3663 0000704  32.7900 327.2647 15.10040783388742
FORMOSAT 7-1            
1 44349U 19036L   26204.51777042  .00002197  00000+0  16218-3 0  9999
2 44349  23.9968 147.4344 0000521 221.1388 138.9073 14.96636453390104
FORMOSAT 7-4            
1 44350U 19036M   26204.34036068  .00002065  00000+0  15089-3 0  9997
2 44350  23.9964 210.7427 0000787 242.4190 117.6231 14.96631795389493
FORMOSAT 7-2            
1 44351U 19036N   26204.29605652  .00002044  00000+0  14909-3 0  9990
2 44351  23.9976 265.3596 0000276 224.6275 135.4203 14.96631896389005
FORMOSAT 7-6            
1 44353U 19036Q   26204.36228883  .00002311  00000+0  17190-3 0  9999
2 44353  23.9980  85.7169 0001231 152.2323 207.8244 14.96637838387249
FORMOSAT 7-5            
1 44358U 19036V   26204.60653595  .00002397  00000+0  17944-3 0  9994
2 44358  23.9996  22.8269 0000010  87.2174 272.8328 14.96619611387816
METEOR-M2 2             
1 44387U 19038A   26204.56182051  .00000069  00000+0  49562-4 0  9993
2 44387  98.9173 192.3880 0000234 346.4142  13.7030 14.24374507366476
GLOBAL-4                
1 44499U 19054E   26204.56164012  .00065247  00000+0  57458-3 0  9993
2 44499  45.0061  25.9709 0006623 248.6170 111.4022 15.67904993386062
ZY-1 02D                
1 44528U 19059A   26204.59756318  .00000147  00000+0  66985-4 0  9994
2 44528  98.6706 266.1932 0002983 264.2317  95.8528 14.35270396359562
TAURUS-1 (JINNIUZUO 1)  
1 44530U 19059C   26204.60263653  .00004064  00000+0  64939-3 0  9992
2 44530  98.6447  11.7054 0008682 188.8349 171.2705 14.72429876364005
ZHUHAI-1 03B            
1 44536U 19060C   26204.60379400  .00035964  00000+0  51550-3 0  9996
2 44536  97.5560   4.3996 0008903 175.2811 184.8529 15.56039707381981
ZHUHAI-1 03D            
1 44538U 19060E   26204.61618667  .00036476  00000+0  61025-3 0  9997
2 44538  97.5399 356.2127 0007909 161.5616 198.5924 15.51774861381729
ZHUHAI-1 03E            
1 44539U 19060F   26204.59236019  .00018839  00000+0  44140-3 0  9994
2 44539  97.5649 355.8419 0004680 237.9553 122.1240 15.42136221381375
GAOFEN-7                
1 44703U 19072A   26204.63865060  .00004221  00000+0  19314-3 0  9994
2 44703  97.5700 265.4154 0016881 280.4185  79.5147 15.20964794373189
JILIN-1 GAOFEN 2A       
1 44777U 19075A   26204.59268799  .00015266  00000+0  38201-3 0  9996
2 44777  97.4955 289.2551 0004524 319.1375  40.9531 15.40187803370487
NINGXIA-1 1             
1 44779U 19076A   26204.52301671 -.00000076  00000+0  35032-4 0  9993
2 44779  45.0071  17.4728 0011150 326.4935  33.5193 14.02042985342951
NINGXIA-1 5             
1 44783U 19076E   26204.60631172 -.00000171  00000+0 -26972-4 0  9999
2 44783  45.0067  16.4292 0011171 317.2460  42.7505 14.02089974342880
KL-ALPHA A              
1 44785U 19077A   26204.57144216  .00000000  00000+0 -18071-4 0  9997
2 44785  88.9239 218.5848 0011560  14.6356 345.5131 13.56045881330664
CARTOSAT-3              
1 44804U 19081A   26204.64593065  .00006628  00000+0  31724-3 0  9992
2 44804  97.4285 265.9210 0012240  32.0039 328.1936 15.19230957369000
JILIN-1 GAOFEN 2B       
1 44836U 19086A   26204.59629428  .00006044  00000+0  27444-3 0  9995
2 44836  97.4866 276.3643 0014029 185.5179 174.5904 15.21071291366026
TIANQIN 1 (CAS-6)       
1 44879U 19093A   26204.62095462  .00005071  00000+0  46167-3 0  9991
2 44879  97.7793 288.2002 0009866 294.3268  65.6922 14.95588223357496
ETRSS-1                 
1 44880U 19093B   26204.61698760  .00004233  00000+0  38185-3 0  9992
2 44880  97.7814 288.6884 0009951 295.2366  64.7823 14.96039467357502
TIANYAN 01              
1 44881U 19093C   26204.59479546  .00000203  00000+0  28875-4 0  9998
2 44881  97.7513 275.9367 0012844 333.3636  26.6919 14.86567615356820
TIANYAN 02              
1 44882U 19093D   26204.61032789  .00007697  00000+0  53698-3 0  9990
2 44882  97.7938 299.7600 0012485 257.1134 102.8698 15.05607922358093
CBERS 4A                
1 44883U 19093E   26204.63069097  .00001567  00000+0  20692-3 0  9993
2 44883  98.0174 272.0994 0001954 122.6711 237.4690 14.81457716356470
WEILAI 1R               
1 44884U 19093F   26204.59136781  .00005623  00000+0  44520-3 0  9997
2 44884  97.7892 294.5474 0014610 279.0122  80.9448 15.00921640357884
